#dP2023  3  8  0  0  0.00000000      96 __u+U ITR14 FIT  IAC
## 2252 259200.00000000   900.00000000 60011 0.0000000000000
+  117   C06C07C08C09C10C11C12C13C14C16C19C20C21C22C23C24C25
+        C26C27C28C29C30C32C33C34C35C36C37C38C39C40C41C42C43
+        C44C45C46E02E03E04E05E07E08E09E10E11E12E14E15E18E19
+        E21E24E25E26E27E30E31E33E34E36G01G02G03G04G05G06G07
+        G08G09G10G11G12G13G14G15G16G17G18G19G20G21G22G23G24
+        G25G26G27G28G29G30G32J02J03J04R01R02R03R04R05R07R08
+        R09R11R12R13R14R15R16R17R18R19R20R21R22R24R25  0  0
++        11 11 12 11 11 10 11 11 11 11  9  9  9 10  9  9  9
++         9  9  9  9  9  9  9  9 10  9  9 10 10 10  9  9  9
++         9 10  9  4  4  4  5  4  4  4  4  4  4  4  4  4  4
++         4  4  4  4  4  4  4  4  5  4  4  4  4  4  4  4  4
++         4  4  4  4  4  4  4  4  4  4  4  4  4  4  4  4  4
++         3  4  4  4  4  4  4  8  8  9  8  6  6  6  6  6  6
++         6  6  6  7  6  6  6  6  6  7  7  6  6  6  8  0  0
%c M  cc GPS ccc cccc cccc cccc cccc ccccc ccccc ccccc ccccc
%c cc cc ccc ccc cccc cccc cccc cccc ccccc ccccc ccccc ccccc
%f  0.0000000  0.000000000  0.00000000000  0.000000000000000
%f  0.0000000  0.000000000  0.00000000000  0.000000000000000
%i    0    0    0    0      0      0      0      0         0
%i    0    0    0    0      0      0      0      0         0
/* INFORMATION & ANALYSIS CENTER (IAC)            RAPID DATA
/* S/V CLOCKS ARE ALIGNED TO GNSS TIME                      
/* G:C1WC2W R:C1PC2P E:C1XC5X C:C2IC6I J:C1CC2S             
/* PCV:IGS20_2247 OL/AL:FES2004  NONE     YN ORB:CoN CLK:CoN
*  2023 03 08  9  0  0.00000000
PC06  -2058.574743  31098.313351 -28257.698467   -194.786323
PC07 -16132.537674  27868.085076  27180.650747     10.648072
PC08 -13707.343575  39894.073535  -2505.498486    520.864216
PC09   5452.177668  35249.627579 -21657.132434    905.278974
PC10  -7550.989831  28443.315101  30350.832247     -4.360902
PC11   9219.018260  22121.993691  14373.756996    694.027483
PC12  -7849.184699  13601.313586  23105.122554    493.786669
PC13  -9133.027711  40524.248159  -7815.421523    224.538726
PC14   1399.293552  15986.444746 -22802.542534    564.115460
PC16  -3383.391142  29517.086028 -29582.767971    144.241947
PC19 -11946.164850 -12044.248305  22184.177352   -895.326784
PC20   7652.305157 -17228.302650  20604.420413    690.135754
PC21 -24175.383514  12343.059936  -6402.577900   -908.941310
PC22 -25629.602799    321.839137  11007.861401   -596.776544
PC23  15661.508166   4701.724051  22609.606199   -885.342160
PC24  -7071.414632  26963.466797  -1617.984684   -321.626768
PC25   7366.539878  21795.539639  15795.921673     84.022384
PC26 -15118.163206  17049.745550 -16150.805195    -88.844537
PC27  15251.485741  -6979.325134 -22320.477309    107.364654
PC28  22994.156310   9142.877604 -12895.262657     78.539544
PC29 -18028.983280 -20574.702312  -5538.909039     90.625405
PC30  -1290.054185 -19465.370753 -19972.288677      0.936000
PC32  24112.333700 -12540.013572   6383.481149   -604.630229
PC33  11971.367764  12008.601536 -22156.635324   -870.971921
PC34   2461.922096  19972.566488  19309.713329    121.815802
PC35 -23486.910677  -9226.479720  11954.366892    668.257430
PC36  -6407.680646 -22420.491835 -15307.645632   -578.571199
PC37  15866.657366 -15353.209539  17058.008376   -806.616029
PC38 -17606.550387  37891.848052   6202.935047     63.546297
PC39  -8145.055069  25178.192083 -32737.693920     -2.087703
PC40 -22243.381117  21539.881067  28495.021678    -16.979179
PC41  25421.818146    -15.009787 -11460.088121   -697.421383
PC42  -8998.554476  17282.950590 -19918.853573   -798.523650
PC43  17425.556936  20854.328529   6266.274976     10.700134
PC44 -15260.837822   7411.984144  22149.771056     37.580722
PC45 -15669.653717  -4165.291760 -22719.078908    -69.468871
PC46   5948.956975 -27241.990945    -59.421688    -38.366404
PE02  -4075.281137  22644.904333  18624.513574     25.054383
PE03   7200.187382  17934.689174 -22422.018941   -657.048106
PE04 -24763.632943 -12988.395796   9719.648588    -73.738270
PE05 -15056.509244  12440.335233 -22236.281320    -88.519605
PE07  28221.738717    336.462197   8943.072647    -28.266623
PE08  24701.205036  12962.600105  -9909.263196    -47.637327
PE09 -28251.960325   -472.980618  -8794.364237   -861.299197
PE10 -17522.449196 -11337.635020  20988.020729   -517.527970
PE11 -16430.852122    634.552683  24608.405203   1163.436921
PE12 -15824.531632 -20467.882180  14405.165907   -449.557566
PE14   -781.850810 -19897.034331 -22036.006892    162.310549
PE15  15708.817541  20705.748531 -14145.335290     -5.974251
PE18  18138.752857  17693.863794  11958.575054   -308.293972
PE19  -4151.929838 -17706.434075  23364.786603  -3061.125658
PE21  18747.943232 -22689.456477  -3109.920621   -516.270172
PE24 -23516.995702   8796.027277 -15718.945639  -1153.372388
PE25 -18951.892705  22574.833356   2779.458660   -600.882437
PE26   7345.397011 -20692.953775 -19846.831557     39.210786
PE27  23550.351909  -9627.249673  15111.526816   -529.552293
PE30  13939.978919   9622.556168  24257.222123  -1299.929143
PE31 -14442.480132  -8953.120156 -24237.234192   -517.967025
PE33  -5604.012980 -28723.591949  -4493.212590   -449.925369
PE34   5753.702262  28708.606858   4341.777749    -33.785992
PE36  -7711.454944  19986.134410  20424.960915    -23.011617
PG01 -14210.899409   2563.292998  21975.690440    204.950828
PG02  12906.712507  -7754.212041 -21279.978253   -615.889860
PG03 -21779.310997  10870.177041  10364.844816   -353.284457
PG04 -23263.640674   1524.745892 -12819.783313    -11.891781
PG05  16739.232973   3237.373734 -20564.187807   -118.649155
PG06   5126.182172  25983.879700   1142.600018    579.492677
PG07  -8921.044567  17107.857324 -17595.293181    227.359397
PG08 -26006.784422  -6252.873387   1189.751563   -111.918599
PG09 -14910.877614  10190.735571 -19562.279787   -204.784498
PG10   6658.013607 -20572.325401  15386.882364    -27.674051
PG11  12190.625228  20290.087135 -12071.390791   -124.113140
PG12  22349.684184  -7854.920164  11628.467697   -348.938663
PG13  22510.061004  13655.179764  -4411.932966    487.209706
PG14  -9731.252630  20957.777717  12983.463262     -9.538981
PG15  26453.266147   3383.396036    997.572714     19.679910
PG16 -14787.143863  -7104.799119 -21276.110922   -516.590231
PG17   -938.991921  15512.977114  21958.959447    704.273627
PG18   6378.755243 -20503.959269 -15534.281768   -170.577135
PG19  10377.024107  17150.721631  17334.772457    287.194021
PG20   9370.760589  12914.812983 -21223.484080    446.333999
PG21 -16971.156437  -6603.532656  20180.837987    154.280784
PG22 -13314.322350 -17129.628537  15874.431133    441.110784
PG23  15905.485255 -20594.337690   4925.378355      9.502017
PG24  16462.680646   1562.517942  20503.468484   -103.088173
PG25  20353.615465 -16473.283323   3143.779578    425.964904
PG26  -4151.676715 -17116.033291 -19901.499933    241.905977
PG27 -21490.108779 -13110.107001  -9348.283848     85.857725
PG28  -4896.247598 -25928.844712   3023.291755     36.955246
PG29  18376.727525  -6098.026045 -18265.504410   -589.808527
PG30   -434.315750  25133.381166  -8055.368321   -527.740504
PG32  -3258.153247 -16252.625185  20964.899308   -417.288745
PJ02 -29405.175142  30257.075062   3555.144366     -1.124432
PJ03 -25734.022378  23015.582717  29278.221445      0.759360
PJ04 -33407.881856  23359.422376  -5914.426706     94.171445
PR01   4831.594150 -11518.209621  22249.031484     24.359457
PR02 -14928.842436  -7382.473390  19394.009690    -23.177868
PR03 -25022.471590    769.296331   5098.985442     73.779757
PR04 -21132.933683   8076.937646 -11761.429860    178.558594
PR05  -5811.350611  11100.049121 -22206.465347    108.932456
PR07  25105.611964  -1200.640659  -4154.679618     51.321136
PR08  20889.734457  -8373.191985  12041.453288    -69.772988
PR09   4902.777718  14903.714113  20100.573882    107.965947
PR11  13462.810714 -17764.913284  12420.554576    -14.943060
PR12   6513.883333 -23827.416977  -6306.573891     25.501466
PR13  -3464.579377 -16359.153598 -19281.166860    -32.759769
PR14 -12536.099400   2402.969321 -22077.098106     24.402662
PR15 -13504.007744  18407.644758 -11365.468231     90.606849
PR16  -6526.491518  23899.998479   6011.193462     12.109359
PR17 -16668.749488  -9411.701825  16851.190069    610.844191
PR18  -8792.443878   5680.218725  23277.604970     70.385604
PR19   2112.842501  17416.414710  18515.468705   -224.501971
PR20  14491.791036  20960.204811     67.611560    -88.957436
PR21  16139.541570   8138.153104 -18006.777256   -378.723340
PR22   8717.058647  -6461.602039 -23058.536114     74.000616
PR24 -15430.385665 -20298.981677    625.335247    152.105046
PR25  16458.367215  10335.685811 -16524.472909     57.121712
EOF
